SKY MUSTER 2 (NBN1B)    
1 41794U 16060B   26168.85415073 -.00000250  00000+0  00000+0 0  9990
2 41794   0.0177 334.8296 0001381 109.0775 274.4893  1.00269934 35525
HIMAWARI-9              
1 41836U 16064A   26168.85337073 -.00000280  00000+0  00000+0 0  9997
2 41836   0.0155 283.0038 0000938 207.6136 223.4578  1.00270553 35219
SHIJIAN-17 (SJ-17)      
1 41838U 16065A   26168.46867199  .00000068  00000+0  00000+0 0  9997
2 41838   5.7542  72.6015 0001796  28.1137 209.0916  0.99854650 35208
GOES 16                 
1 41866U 16071A   26168.66217425 -.00000096  00000+0  00000+0 0  9990
2 41866   0.3432  85.5123 0000233 311.7942   2.2946  1.00271031 35105
TIANLIAN 1-04           
1 41869U 16072A   26168.78920751  .00000025  00000+0  00000+0 0  9991
2 41869   0.8693  82.9101 0042407  89.9567 194.0621  1.00271482 35307
WGS F8 (USA 272)        
1 41879U 16075A   26168.63766862  .00000000  00000+0  00000+0 0  9993
2 41879   0.0410  49.0094 0000231 283.0177 313.2449  1.00263493 34827
FENGYUN 4A              
1 41882U 16077A   26168.65560394 -.00000363  00000+0  00000+0 0  9996
2 41882   2.3247  80.2847 0008604 153.2146  32.1766  1.00268375 34938
ECHOSTAR 19             
1 41893U 16079A   26168.66364757 -.00000144  00000+0  00000+0 0  9993
2 41893   0.0168  18.6137 0001222  69.5245 319.5879  1.00271209 34704
JCSAT-110A (JCSAT-15)   
1 41903U 16082A   26167.94457662 -.00000354  00000+0  00000+0 0  9990
2 41903   0.0171   5.3980 0000487 130.3695 219.5471  1.00271153 34757
STAR ONE D1             
1 41904U 16082B   26168.80879427 -.00000216  00000+0  00000+0 0  9991
2 41904   0.0175 359.1440 0002145 108.4918   5.5882  1.00270440 34780
TJS-2                   
1 41911U 17001A   26168.83872399 -.00000012  00000+0  00000+0 0  9999
2 41911   0.8357  85.3141 0000311  65.0999 124.1681  1.00269749 34723
SBIRS GEO-4 (USA 273)   
1 41937U 17004A   26168.82965074  .00000117  00000+0  00000+0 0  9997
2 41937   2.2450  43.3117 0001947  34.3158 148.0203  1.00271707 34609
HISPASAT 36W-1          
1 41942U 17006A   26168.81841433 -.00000250  00000+0  00000+0 0  9995
2 41942   0.0031 123.9763 0001093 322.3763  78.3409  1.00270512 34259
TELKOM 3S               
1 41944U 17007A   26168.83283281 -.00000368  00000+0  00000+0 0  9991
2 41944   0.0176 314.8595 0002109 124.4788 244.5674  1.00270650 34144
INTELSAT 32E (IS-32E)   
1 41945U 17007B   26168.81694097 -.00000275  00000+0  00000+0 0  9998
2 41945   0.0178 357.9916 0000716 314.7958 204.1882  1.00268882 34234
ECHOSTAR 23             
1 42070U 17014A   26168.58990810 -.00000062  00000+0  00000+0 0  9996
2 42070   0.0178   1.6622 0002174  81.5139 285.1303  1.00270358 33924
WGS F9 (USA 275)        
1 42075U 17016A   26168.11026933  .00000000  00000+0  00000+0 0  9999
2 42075   0.0243 346.3013 0000290 292.6049  14.1550  1.00269319 33892
SES-10                  
1 42432U 17017A   26168.81226095 -.00000278  00000+0  00000+0 0  9993
2 42432   0.0239  42.2106 0002542  46.4891  42.8697  1.00270711 33765
CHINASAT 16 (SJ-13)     
1 42662U 17018A   26167.99193619 -.00000355  00000+0  00000+0 0  9998
2 42662   0.0968  91.5335 0004150 138.3977 142.9411  1.00269757 33745
KOREASAT 7              
1 42691U 17023A   26168.84843072 -.00000367  00000+0  00000+0 0  9999
2 42691   0.0221 326.7153 0000879 104.9831 255.7168  1.00269125 33372
SGDC                    
1 42692U 17023B   26167.47258564 -.00000251  00000+0  00000+0 0  9996
2 42692   0.0499  77.8003 0002466  15.9049 266.3168  1.00270916 33394
GSAT-9                  
1 42695U 17024A   26168.84479071 -.00000291  00000+0  00000+0 0  9994
2 42695   0.0084  48.5337 0002565  34.8941 224.1173  1.00268930 33305
INMARSAT 5-F4           
1 42698U 17025A   26167.94652527  .00000072  00000+0  00000+0 0  9993
2 42698   0.0164   5.9790 0000577   2.1844 294.2752  1.00271063 33276
SES-15                  
1 42709U 17026A   26168.50114257  .00000055  00000+0  00000+0 0  9994
2 42709   0.0183 336.2320 0000630 199.5890 141.1638  1.00269254  7432
QZS-2 (MICHIBIKI-2)     
1 42738U 17028A   26168.51850486 -.00000166  00000+0  00000+0 0  9994
2 42738  39.4268 243.1501 0759333 269.2718  81.7354  1.00283788  7629
VIASAT-2                
1 42740U 17029A   26168.52651904 -.00000270  00000+0  00000+0 0  9999
2 42740   0.0162 300.5142 0000268  30.5918  54.3252  1.00271142 33202
EUTELSAT 172B           
1 42741U 17029B   26168.78834086 -.00000011  00000+0  00000+0 0  9995
2 42741   0.0111  85.7750 0000136 213.0090  63.0786  1.00270124 33744
GSAT-19                 
1 42747U 17031A   26167.83689794  .00000122  00000+0  00000+0 0  9995
2 42747   0.0395 265.3330 0007059 162.5537 186.3779  1.00273362 33141
ECHOSTAR 21             
1 42749U 17032A   26168.82757074  .00000060  00000+0  00000+0 0  9996
2 42749   1.7710 355.7852 0002088  92.1728 126.3095  1.00270203 33104
BULGARIASAT-1           
1 42801U 17038A   26168.11295602  .00000007  00000+0  00000+0 0  9998
2 42801   0.0168   6.6670 0002983  90.4285 210.8360  1.00270112 32848
HELLAS-SAT 3            
1 42814U 17040A   26168.83320410  .00000147  00000+0  00000+0 0  9995
2 42814   0.0505  46.7961 0004714   7.0133 191.2032  1.00271617 32811
GSAT-17                 
1 42815U 17040B   26168.84401068  .00000000  00000+0  00000+0 0  9994
2 42815   0.0185  25.8411 0001957 281.6174 355.9714  1.00267556 32795
