OBJECT_NAME,OBJECT_ID,EPOCH,MEAN_MOTION,ECCENTRICITY,INCLINATION,RA_OF_ASC_NODE,ARG_OF_PERICENTER,MEAN_ANOMALY,EPHEMERIS_TYPE,CLASSIFICATION_TYPE,NORAD_CAT_ID,ELEMENT_SET_NO,REV_AT_EPOCH,BSTAR,MEAN_MOTION_DOT,MEAN_MOTION_DDOT
SKY MUSTER 2 (NBN1B),2016-060B,2026-06-17T20:29:58.623072,1.00269934,.0001381,0.0177,334.8296,109.0775,274.4893,0,U,41794,999,3552,0,-.25E-5,0
HIMAWARI-9,2016-064A,2026-06-17T20:28:51.231072,1.00270553,.0000938,0.0155,283.0038,207.6136,223.4578,0,U,41836,999,3521,0,-.28E-5,0
SHIJIAN-17 (SJ-17),2016-065A,2026-06-17T11:14:53.259936,0.99854650,.0001796,5.7542,72.6015,28.1137,209.0916,0,U,41838,999,3520,0,.68E-6,0
GOES 16,2016-071A,2026-06-17T15:53:31.855200,1.00271031,.0000233,0.3432,85.5123,311.7942,2.2946,0,U,41866,999,3510,0,-.96E-6,0
TIANLIAN 1-04,2016-072A,2026-06-17T18:56:27.528864,1.00271482,.0042407,0.8693,82.9101,89.9567,194.0621,0,U,41869,999,3530,0,.25E-6,0
WGS F8 (USA 272),2016-075A,2026-06-17T15:18:14.568768,1.00263493,.0000231,0.0410,49.0094,283.0177,313.2449,0,U,41879,999,3482,0,0,0
FENGYUN 4A,2016-077A,2026-06-17T15:44:04.180416,1.00268375,.0008604,2.3247,80.2847,153.2146,32.1766,0,U,41882,999,3493,0,-.363E-5,0
ECHOSTAR 19,2016-079A,2026-06-17T15:55:39.150048,1.00271209,.0001222,0.0168,18.6137,69.5245,319.5879,0,U,41893,999,3470,0,-.144E-5,0
JCSAT-110A (JCSAT-15),2016-082A,2026-06-16T22:40:11.419968,1.00271153,.00004872,0.0171,5.3980,130.3695,219.5471,0,U,41903,999,3475,0,-.354E-5,0
STAR ONE D1,2016-082B,2026-06-17T19:24:39.824928,1.00270440,.0002145,0.0175,359.1440,108.4918,5.5882,0,U,41904,999,3478,0,-.216E-5,0
TJS-2,2017-001A,2026-06-17T20:07:45.752736,1.00269749,.0000311,0.8357,85.3141,65.0999,124.1681,0,U,41911,999,3472,0,-.12E-6,0
SBIRS GEO-4 (USA 273),2017-004A,2026-06-17T19:54:41.823936,1.00271707,.0001947,2.2450,43.3117,34.3158,148.0203,0,U,41937,999,3460,0,.117E-5,0
HISPASAT 36W-1,2017-006A,2026-06-17T19:38:30.998112,1.00270512,.0001093,0.0031,123.9763,322.3763,78.3409,0,U,41942,999,3425,0,-.25E-5,0
TELKOM 3S,2017-007A,2026-06-17T19:59:16.754784,1.00270650,.0002109,0.0176,314.8595,124.4788,244.5674,0,U,41944,999,3414,0,-.368E-5,0
INTELSAT 32E (IS-32E),2017-007B,2026-06-17T19:36:23.699808,1.00268882,.0000716,0.0178,357.9916,314.7958,204.1882,0,U,41945,999,3423,0,-.275E-5,0
ECHOSTAR 23,2017-014A,2026-06-17T14:09:28.059840,1.00270358,.0002174,0.0178,1.6622,81.5139,285.1303,0,U,42070,999,3392,0,-.62E-6,0
WGS F9 (USA 275),2017-016A,2026-06-17T02:38:47.270112,1.00269319,.000029,0.0243,346.3013,292.6049,14.1550,0,U,42075,999,3389,0,0,0
SES-10,2017-017A,2026-06-17T19:29:39.346080,1.00270711,.0002542,0.0239,42.2106,46.4891,42.8697,0,U,42432,999,3376,0,-.278E-5,0
CHINASAT 16 (SJ-13),2017-018A,2026-06-16T23:48:23.286816,1.00269757,.00041509,0.0968,91.5335,138.3977,142.9411,0,U,42662,999,3374,0,-.355E-5,0
KOREASAT 7,2017-023A,2026-06-17T20:21:44.414208,1.00269125,.0000879,0.0221,326.7153,104.9831,255.7168,0,U,42691,999,3337,0,-.367E-5,0
SGDC,2017-023B,2026-06-16T11:20:31.399296,1.00270916,.00024664,0.0499,77.8003,15.9049,266.3168,0,U,42692,999,3339,0,-.251E-5,0
GSAT-9,2017-024A,2026-06-17T20:16:29.917344,1.00268930,.0002565,0.0084,48.5337,34.8941,224.1173,0,U,42695,999,3330,0,-.291E-5,0
INMARSAT 5-F4,2017-025A,2026-06-16T22:42:59.783328,1.00271063,.0000577,0.0164,5.9790,2.1844,294.2752,0,U,42698,999,3327,0,.72E-6,0
SES-15,2017-026A,2026-06-17T12:01:38.718048,1.00269254,.000063,0.0183,336.2320,199.5890,141.1638,0,U,42709,999,743,0,.55E-6,0
QZS-2 (MICHIBIKI-2),2017-028A,2026-06-17T12:26:38.819904,1.00283788,.0759333,39.4268,243.1501,269.2718,81.7354,0,U,42738,999,762,0,-.166E-5,0
VIASAT-2,2017-029A,2026-06-17T12:38:11.245056,1.00271142,.0000268,0.0162,300.5142,30.5918,54.3252,0,U,42740,999,3320,0,-.27E-5,0
EUTELSAT 172B,2017-029B,2026-06-17T18:55:12.650304,1.00270124,.0000136,0.0111,85.7750,213.0090,63.0786,0,U,42741,999,3374,0,-.11E-6,0
GSAT-19,2017-031A,2026-06-16T20:05:07.982016,1.00273362,.00070594,0.0395,265.3330,162.5537,186.3779,0,U,42747,999,3314,0,.122E-5,0
ECHOSTAR 21,2017-032A,2026-06-17T19:51:42.111936,1.00270203,.0002088,1.7710,355.7852,92.1728,126.3095,0,U,42749,999,3310,0,.6E-6,0
BULGARIASAT-1,2017-038A,2026-06-17T02:42:39.400128,1.00270112,.0002983,0.0168,6.6670,90.4285,210.8360,0,U,42801,999,3284,0,.7E-7,0
HELLAS-SAT 3,2017-040A,2026-06-17T19:59:48.834240,1.00271617,.0004714,0.0505,46.7961,7.0133,191.2032,0,U,42814,999,3281,0,.147E-5,0
GSAT-17,2017-040B,2026-06-17T20:15:22.522752,1.00267556,.0001957,0.0185,25.8411,281.6174,355.9714,0,U,42815,999,3279,0,0,0
